MEAN_MOTION;ECCENTRICITY;INCLINATION;RA_OF_ASC_NODE;ARG_OF_PERICENTER;MEAN_ANOMALY;BSTAR;MEAN_MOTION_DOT;MEAN_MOTION_DDOT;TYPE
14.3421662;0.000196;86.3924;84.2966;93.5071;266.6349;2.3092E-5;8.4E-7;0;Iridium
14.34216619;0.0001965;86.3924;84.0338;93.7526;266.3894;1.7336E-5;6.8E-7;0;Iridium
14.34216619;0.0001965;86.3924;84.0338;93.7526;266.3894;1.7336E-5;6.8E-7;0;Iridium
14.34216654;0.000197;86.3924;83.8586;93.7865;266.3556;1.7589E-5;6.9E-7;0;Iridium
14.34216679;0.0001977;86.3924;83.5958;93.9875;266.1547;1.5978E-5;6.5E-7;0;Iridium
14.34216708;0.0001981;86.3924;83.4498;93.9814;266.1609;1.5828E-5;6.4E-7;0;Iridium
14.34216727;0.0001986;86.3925;83.2162;94.3127;265.8296;1.3519E-5;5.8E-7;0;Iridium
14.34216735;0.0001987;86.3925;83.187;94.3357;265.8066;1.3863E-5;5.9E-7;0;Iridium
14.34216745;0.0001992;86.3925;83.041;94.3884;265.7539;1.2826E-5;5.6E-7;0;Iridium
14.34216787;0.0001998;86.3925;82.7783;94.6885;265.4539;1.1384E-5;5.2E-7;0;Iridium
14.34216787;0.0001998;86.3925;82.7783;94.6885;265.4539;1.1384E-5;5.2E-7;0;Iridium
14.34216789;0.0002001;86.3925;82.7199;94.6792;265.4632;1.1618E-5;5.2E-7;0;Iridium
14.34216848;0.0002008;86.3926;82.3695;94.9753;265.1672;9.5446E-6;4.7E-7;0;Iridium
14.34216906;0.0002016;86.3926;82.1943;95.1125;265.0301;1.106E-5;5.1E-7;0;Iridium
14.34216932;0.0002022;86.3927;81.9608;95.2922;264.8504;9.2163E-6;4.6E-7;0;Iridium
14.34216977;0.0002029;86.3927;81.7856;95.3626;264.7802;9.8444E-6;4.7E-7;0;Iridium
14.34217006;0.0002035;86.3928;81.5228;95.4751;264.6677;8.3901E-6;4.3E-7;0;Iridium
14.34217035;0.000204;86.3928;81.3768;95.5186;264.6243;8.7469E-6;4.4E-7;0;Iridium
14.34217111;0.0002053;86.3929;80.9389;95.7736;264.3694;7.9303E-6;4.2E-7;0;Iridium
14.34217145;0.0002063;86.3929;80.6761;95.9699;264.1732;8.3555E-6;4.3E-7;0;Iridium
14.3421715;0.0002067;86.393;80.5593;95.8573;264.2859;8.3321E-6;4.3E-7;0;Iridium
14.34217166;0.0002076;86.393;80.2674;95.9768;264.1664;7.5924E-6;4.1E-7;0;Iridium
14.34217171;0.0002082;86.3931;80.0922;95.9538;264.1895;6.758E-6;3.9E-7;0;Iridium
14.34217181;0.0002089;86.3931;79.8587;95.9476;264.1958;6.7554E-6;3.9E-7;0;Iridium
14.34217237;0.0002093;86.3932;79.6835;95.9555;264.188;1.0154E-5;4.8E-7;0;Iridium
14.34217342;0.0002101;86.3932;79.4208;96.0725;264.071;1.6826E-5;6.7E-7;0;Iridium
14.34217387;0.0002108;86.3933;79.2749;96.0108;264.1329;1.9002E-5;7.3E-7;0;Iridium
14.34217474;0.0002117;86.3933;79.0121;96.1277;264.016;2.2296E-5;8.2E-7;0;Iridium
14.34217506;0.0002125;86.3933;78.8662;96.105;264.0388;2.2335E-5;8.2E-7;0;Iridium
14.34217558;0.0002132;86.3934;78.6035;96.1363;264.0076;2.1436E-5;8.0E-7;0;Iridium
14.34217551;0.0002134;86.3934;78.5743;96.1328;264.0111;2.0641E-5;7.8E-7;0;Iridium
14.34217587;0.000214;86.3934;78.4283;96.1695;263.9745;2.0461E-5;7.7E-7;0;Iridium
14.34217597;0.0002146;86.3935;78.1948;96.1567;263.9873;1.7303E-5;6.8E-7;0;Iridium
14.34217618;0.0002153;86.3935;78.0197;96.1694;263.9747;1.6031E-5;6.5E-7;0;Iridium
14.34217695;0.0002165;86.3936;77.757;96.2203;263.9239;1.7199E-5;6.8E-7;0;Iridium
14.3421771;0.0002174;86.3936;77.5819;96.1533;263.991;1.4744E-5;6.1E-7;0;Iridium
14.34217776;0.0002181;86.3937;77.3776;96.1882;263.9562;1.6145E-5;6.5E-7;0;Iridium
14.34217835;0.0002191;86.3938;77.1733;96.1201;264.0244;1.6176E-5;6.5E-7;0;Iridium
14.34217947;0.0002203;86.3939;76.9398;96.1839;263.9608;1.8878E-5;7.3E-7;0;Iridium
14.34217947;0.0002203;86.3939;76.9398;96.1839;263.9608;1.8878E-5;7.3E-7;0;Iridium
14.3421802;0.000221;86.3939;76.7647;96.0983;264.0465;2.0032E-5;7.6E-7;0;Iridium
14.34218082;0.0002218;86.394;76.502;96.0629;264.082;1.8473E-5;7.2E-7;0;Iridium
14.34218122;0.0002225;86.3941;76.3561;95.9274;264.2175;1.7909E-5;7.0E-7;0;Iridium
14.34218173;0.0002232;86.3942;76.1226;95.8673;264.2778;1.6705E-5;6.7E-7;0;Iridium
14.34218231;0.0002242;86.3943;75.9184;95.7645;264.3806;1.6248E-5;6.5E-7;0;Iridium
14.3421829;0.0002249;86.3944;75.6849;95.761;264.3842;1.6302E-5;6.5E-7;0;Iridium
14.3421829;0.0002249;86.3944;75.6849;95.761;264.3842;1.6302E-5;6.5E-7;0;Iridium
14.34218294;0.0002251;86.3944;75.6557;95.7084;264.4368;1.6195E-5;6.5E-7;0;Iridium
14.34218308;0.0002256;86.3944;75.5098;95.6327;264.5126;1.4221E-5;6.0E-7;0;Iridium
14.34218381;0.0002265;86.3946;75.2472;95.6189;264.5265;1.4902E-5;6.2E-7;0;Iridium
14.34218402;0.0002271;86.3946;75.1013;95.5527;264.5927;1.4209E-5;6.0E-7;0;Iridium
14.34218411;0.0002273;86.3947;75.0429;95.5715;264.574;1.3909E-5;5.9E-7;0;Iridium
14.34218506;0.000229;86.3948;74.6636;95.3881;264.7576;1.4629E-5;6.1E-7;0;Iridium
14.34218569;0.0002295;86.3949;74.4593;95.3359;264.8098;1.6935E-5;6.7E-7;0;Iridium
14.34218569;0.0002295;86.3949;74.4593;95.3359;264.8098;1.6935E-5;6.7E-7;0;Iridium
14.34218648;0.0002306;86.395;74.2551;95.2305;264.9154;1.9181E-5;7.4E-7;0;Iridium
14.34218721;0.0002312;86.395;74.0217;95.0767;265.0693;2.0689E-5;7.8E-7;0;Iridium
14.34218721;0.0002312;86.395;74.0217;95.0767;265.0693;2.0689E-5;7.8E-7;0;Iridium
14.34218787;0.0002318;86.3951;73.8466;94.9721;265.1739;2.2335E-5;8.2E-7;0;Iridium
14.34218881;0.0002324;86.3952;73.6132;94.913;265.2332;2.4738E-5;8.9E-7;0;Iridium
14.3421894;0.0002333;86.3952;73.409;94.7898;265.3564;2.4988E-5;9.0E-7;0;Iridium
14.34219003;0.0002337;86.3953;73.2047;94.6982;265.4481;2.6313E-5;9.3E-7;0;Iridium
14.3421904;0.0002348;86.3954;73.0005;94.4139;265.7325;2.4822E-5;8.9E-7;0;Iridium
14.3421908;0.0002353;86.3955;72.7963;94.2671;265.8794;2.4453E-5;8.8E-7;0;Iridium
14.34219131;0.0002361;86.3956;72.5921;94.1694;265.9771;2.387E-5;8.7E-7;0;Iridium
14.34219219;0.0002368;86.3957;72.3587;94.0959;266.0507;2.4879E-5;8.9E-7;0;Iridium
14.34219219;0.0002368;86.3957;72.3587;94.0959;266.0507;2.4879E-5;8.9E-7;0;Iridium
14.34219268;0.0002376;86.3957;72.1546;94.0709;266.0758;2.3485E-5;8.6E-7;0;Iridium
14.34219336;0.0002384;86.3958;71.9503;94.0878;266.059;2.3145E-5;8.5E-7;0;Iridium
14.34219392;0.0002396;86.3959;71.7462;94.0262;266.1208;2.1776E-5;8.1E-7;0;Iridium
14.34219443;0.0002396;86.396;71.542;93.6512;266.4958;2.0721E-5;7.8E-7;0;Iridium
14.34216263;0.0002414;86.3963;71.1338;92.9631;267.1841;1.7937E-5;7.0E-7;0;Iridium
14.34216315;0.0002415;86.3963;70.9588;92.6719;267.4753;1.7138E-5;6.8E-7;0;Iridium
14.34216265;0.0002457;86.3963;70.4921;92.2403;267.9074;2.1548E-5;8.0E-7;0;Iridium
14.3421638;0.0002463;86.3965;70.1129;92.0594;268.0884;2.074E-5;7.8E-7;0;Iridium
14.34216374;0.0002465;86.3967;69.8796;91.8303;268.3175;1.4138E-5;5.9E-7;0;Iridium
14.34216434;0.0002472;86.3968;69.6463;91.6555;268.4924;1.4216E-5;6.0E-7;0;Iridium
14.34216458;0.0002471;86.3969;69.4421;91.4762;268.6716;1.358E-5;5.8E-7;0;Iridium
14.34216458;0.0002471;86.3969;69.4421;91.4762;268.6716;1.358E-5;5.8E-7;0;Iridium
14.342165;0.0002476;86.397;69.238;91.3494;268.7986;1.3744E-5;5.8E-7;0;Iridium
14.34216582;0.0002478;86.397;69.0339;91.4126;268.7353;1.6914E-5;6.7E-7;0;Iridium
14.3421662;0.0002483;86.3971;68.8297;91.224;268.924;1.6832E-5;6.7E-7;0;Iridium
14.34216661;0.0002482;86.3972;68.6256;90.9717;269.1763;1.7965E-5;7.0E-7;0;Iridium
14.34216695;0.0002488;86.3972;68.3923;90.7471;269.401;1.772E-5;6.9E-7;0;Iridium
14.3421674;0.0002488;86.3973;68.1882;90.5531;269.595;1.9037E-5;7.3E-7;0;Iridium
14.3421674;0.0002488;86.3973;68.1882;90.5531;269.595;1.9037E-5;7.3E-7;0;Iridium
14.34216765;0.0002494;86.3973;67.984;90.5019;269.6463;1.8425E-5;7.1E-7;0;Iridium
14.3421683;0.0002494;86.3975;67.7799;90.3337;269.8145;2.0169E-5;7.6E-7;0;Iridium
14.34216867;0.0002497;86.3975;67.5467;90.0177;270.1305;1.9628E-5;7.5E-7;0;Iridium
14.34216973;0.0002503;86.3976;67.3426;90.0018;270.1464;2.2531E-5;8.3E-7;0;Iridium
14.34217008;0.0002511;86.3977;67.1386;89.8536;270.2948;2.14E-5;8.0E-7;0;Iridium
14.34217048;0.0002512;86.3977;66.9636;89.5135;270.6349;2.1464E-5;8.0E-7;0;Iridium
14.342171;0.0002517;86.3978;66.7304;89.2134;270.935;2.0224E-5;7.6E-7;0;Iridium
14.34217156;0.0002514;86.3978;66.5263;88.8632;271.2852;2.0332E-5;7.7E-7;0;Iridium
14.3421715;0.0002517;86.3978;66.468;88.7197;271.4288;1.9615E-5;7.5E-7;0;Iridium
14.34217195;0.0002516;86.3979;66.3222;88.4808;271.6676;1.8733E-5;7.2E-7;0;Iridium
14.34217292;0.0002521;86.398;66.089;88.2235;271.9249;1.9716E-5;7.5E-7;0;Iridium
14.34217297;0.0002529;86.3981;65.8851;88.2016;271.9469;1.6749E-5;6.7E-7;0;Iridium
14.34217405;0.0002534;86.3982;65.5061;87.6938;272.4547;1.5592E-5;6.3E-7;0;Iridium
14.3421741;0.0002535;86.3982;65.477;87.6597;272.4888;1.5512E-5;6.3E-7;0;Iridium
14.34217405;0.0002534;86.3983;65.3021;87.1828;272.9658;1.2809E-5;5.6E-7;0;Iridium
14.34217445;0.0002539;86.3984;65.0689;87.0121;273.1366;1.1341E-5;5.2E-7;0;Iridium
14.34217474;0.0002538;86.3985;64.8648;86.7921;273.3565;1.0374E-5;4.9E-7;0;Iridium
14.34217474;0.0002538;86.3985;64.8648;86.7921;273.3565;1.0374E-5;4.9E-7;0;Iridium
14.34217512;0.0002536;86.3986;64.6608;86.6116;273.5369;9.9828E-6;4.8E-7;0;Iridium
14.34217599;0.0002532;86.3986;64.4567;86.404;273.7446;1.2052E-5;5.4E-7;0;Iridium
14.34217644;0.0002537;86.3987;64.2235;86.2187;273.9299;1.2218E-5;5.4E-7;0;Iridium
14.342177;0.0002533;86.3988;64.0486;85.8962;274.2523;1.323E-5;5.7E-7;0;Iridium
14.34217757;0.0002542;86.3988;63.8154;85.9084;274.2403;1.3584E-5;5.8E-7;0;Iridium
14.34217835;0.000254;86.3989;63.6113;85.7085;274.4401;1.5988E-5;6.5E-7;0;Iridium
14.34217835;0.000254;86.3989;63.6113;85.7085;274.4401;1.5988E-5;6.5E-7;0;Iridium
14.34217835;0.000254;86.3989;63.6113;85.7085;274.4401;1.5988E-5;6.5E-7;0;Iridium
14.34217888;0.0002546;86.3989;63.4074;85.6317;274.5169;1.7147E-5;6.8E-7;0;Iridium
14.34217909;0.0002543;86.399;63.2033;85.451;274.6976;1.6848E-5;6.7E-7;0;Iridium
14.3421793;0.000255;86.3991;62.9701;85.4498;274.6989;1.6527E-5;6.6E-7;0;Iridium
14.34217999;0.0002549;86.3991;62.7953;85.2372;274.9115;1.855E-5;7.2E-7;0;Iridium
14.34218055;0.0002551;86.3991;62.5621;85.1216;275.0271;1.9031E-5;7.3E-7;0;Iridium
14.34218091;0.0002548;86.3992;62.3872;84.8572;275.2915;1.9964E-5;7.6E-7;0;Iridium
14.3421814;0.000255;86.3992;62.1541;84.4273;275.7214;1.9411E-5;7.4E-7;0;Iridium
14.34218198;0.0002542;86.3992;61.95;83.9891;276.1594;2.0411E-5;7.7E-7;0;Iridium
14.34218198;0.0002542;86.3992;61.95;83.9891;276.1594;2.0411E-5;7.7E-7;0;Iridium
